[{"OBJECT_NAME":"STARLINK-6380","OBJECT_ID":"2023-099S","EPOCH":"2026-03-09T12:33:16.917408","MEAN_MOTION":15.02540942,"ECCENTRICITY":0.00014676,"INCLINATION":43.0018,"RA_OF_ASC_NODE":249.6909,"ARG_OF_PERICENTER":272.2742,"MEAN_ANOMALY":87.7932,"EPHEMERIS_TYPE":0,"CLASSIFICATION_TYPE":"U","NORAD_CAT_ID":57344,"ELEMENT_SET_NO":999,"REV_AT_EPOCH":14609,"BSTAR":-0.00024606554,"MEAN_MOTION_DOT":-3.526e-5,"MEAN_MOTION_DDOT":0},{"OBJECT_NAME":"XSS-10","OBJECT_ID":"2003-005B","EPOCH":"2026-03-09T22:36:04.304736","MEAN_MOTION":14.89771195,"ECCENTRICITY":0.01472532,"INCLINATION":39.7452,"RA_OF_ASC_NODE":284.3199,"ARG_OF_PERICENTER":105.9853,"MEAN_ANOMALY":255.7209,"EPHEMERIS_TYPE":0,"CLASSIFICATION_TYPE":"U","NORAD_CAT_ID":27664,"ELEMENT_SET_NO":999,"REV_AT_EPOCH":24782,"BSTAR":0.00036723179,"MEAN_MOTION_DOT":4.24e-5,"MEAN_MOTION_DDOT":0}]
